H1 CPF  1  MCC 2022  3 31 12  5901 larets
H2  0304206 5557    27944 2022 03 30 23 55 00 2022 04 05 00 07 00   180 1 1  0 0 0
H9
10 0 59672 63060.000000 0      4439650.379     -5305391.110      1376093.044
10 0 59672 63240.000000 0      4303177.417     -5591332.752        45002.562
10 0 59672 63420.000000 0      4004745.304     -5667299.819     -1287753.667
10 0 59672 63600.000000 0      3561024.088     -5526727.079     -2573190.631
10 0 59672 63780.000000 0      2994071.969     -5171542.925     -3764214.195
10 0 59672 63960.000000 0      2330252.095     -4612160.677     -4817384.169
10 0 59672 64140.000000 0      1598996.694     -3867113.118     -5694496.301
10 0 59672 64320.000000 0       831494.038     -2962362.357     -6363922.778
10 0 59672 64500.000000 0        59360.396     -1930333.758     -6801680.802
10 0 59672 64680.000000 0      -686647.692      -808716.021     -6992210.521
10 0 59672 64860.000000 0     -1377829.155       360922.457     -6928854.752
10 0 59672 65040.000000 0     -1988610.433      1534651.206     -6614044.463
10 0 59672 65220.000000 0     -2497463.472      2667787.042     -6059196.645
10 0 59672 65400.000000 0     -2887647.235      3716554.750     -5284331.965
10 0 59672 65580.000000 0     -3147755.409      4639756.004     -4317411.554
10 0 59672 65760.000000 0     -3272050.786      5400389.676     -3193392.558
10 0 59672 65940.000000 0     -3260566.732      5967154.175     -1953021.430
10 0 59672 66120.000000 0     -3118973.059      6315773.734      -641399.312
10 0 59672 66300.000000 0     -2858203.995      6430078.529       693646.391
10 0 59672 66480.000000 0     -2493866.033      6302779.290      2003321.996
10 0 59672 66660.000000 0     -2045439.668      5935880.156      3239693.283
10 0 59672 66840.000000 0     -1535320.438      5340700.131      4357475.483
10 0 59672 67020.000000 0      -987756.380      4537515.035      5315714.436
10 0 59672 67200.000000 0      -427729.138      3554835.475      6079295.050
10 0 59672 67380.000000 0       120163.091      2428358.607      6620217.476
10 0 59672 67560.000000 0       632769.180      1199642.122      6918604.235
10 0 59672 67740.000000 0      1089354.349       -85445.065      6963412.985
10 0 59672 67920.000000 0      1472437.409     -1378438.764      6752840.110
10 0 59672 68100.000000 0      1768467.313     -2630110.326      6294410.653
10 0 59672 68280.000000 0      1968315.859     -3792355.895      5604743.133
10 0 59672 68460.000000 0      2067567.319     -4820077.381      4708985.913
10 0 59672 68640.000000 0      2066595.445     -5672980.792      3639936.238
10 0 59672 68820.000000 0      1970424.756     -6317226.046      2436858.323
10 0 59672 69000.000000 0      1788372.734     -6726840.664      1144028.079
10 0 59672 69180.000000 0      1533494.769     -6884825.178      -190934.044
10 0 59672 69360.000000 0      1221854.306     -6783894.833     -1518880.779
10 0 59672 69540.000000 0       871653.493     -6426798.854     -2791026.975
10 0 59672 69720.000000 0       502278.911     -5826200.348     -3960801.123
10 0 59672 69900.000000 0       133321.193     -5004143.889     -4985578.589
10 0 59672 70080.000000 0      -216386.113     -3991147.944     -5828223.441
10 0 59672 70260.000000 0      -529658.199     -2824981.949     -6458384.924
10 0 59672 70440.000000 0      -791740.888     -1549193.384     -6853515.715
10 0 59672 70620.000000 0      -990953.755      -211454.508     -6999595.810
10 0 59672 70800.000000 0     -1119173.813      1138209.080     -6891560.785
10 0 59672 70980.000000 0     -1172146.476      2449250.506     -6533436.044
10 0 59672 71160.000000 0     -1149617.764      3672445.118     -5938187.020
10 0 59672 71340.000000 0     -1055285.471      4761702.356     -5127288.054
10 0 59672 71520.000000 0      -896570.738      5675791.917     -4130008.140
10 0 59672 71700.000000 0      -684218.155      6379925.287     -2982419.474
10 0 59672 71880.000000 0      -431736.241      6847125.146     -1726147.610
10 0 59672 72060.000000 0      -154700.367      7059321.878      -406895.584
10 0 59672 72240.000000 0       130052.145      7008116.719       927212.942
10 0 59672 72420.000000 0       405296.860      6695163.450      2227410.911
10 0 59672 72600.000000 0       654317.419      6132134.278      3446106.951
10 0 59672 72780.000000 0       861774.593      5340276.069      4538657.869
10 0 59672 72960.000000 0      1014510.666      4349583.184      5465031.440
10 0 59672 73140.000000 0      1102241.634      3197610.548      6191280.119
10 0 59672 73320.000000 0      1118110.208      1928011.342      6690767.513
10 0 59672 73500.000000 0      1059070.563       588855.451      6945127.172
10 0 59672 73680.000000 0       926091.357      -769204.995      6944920.598
10 0 59672 73860.000000 0       724167.934     -2094854.175      6689988.466
10 0 59672 74040.000000 0       462139.828     -3338062.435      6189483.891
10 0 59672 74220.000000 0       152317.994     -4451998.917      5461573.824
10 0 59672 74400.000000 0      -190061.820     -5394830.094      4532815.906
10 0 59672 74580.000000 0      -547540.900     -6131352.600      3437231.777
10 0 59672 74760.000000 0      -901274.118     -6634390.460      2215075.429
10 0 59672 74940.000000 0     -1231957.872     -6885873.794       911337.148
10 0 59672 75120.000000 0     -1520804.517     -6877547.195      -425958.908
10 0 59672 75300.000000 0     -1750509.328     -6611255.585     -1747596.024
10 0 59672 75480.000000 0     -1906152.593     -6098793.266     -3005047.193
10 0 59672 75660.000000 0     -1975993.917     -5361333.412     -4152312.118
10 0 59672 75840.000000 0     -1952116.246     -4428470.829     -5147624.307
10 0 59672 76020.000000 0     -1830888.286     -3336944.458     -5954951.722
10 0 59672 76200.000000 0     -1613230.122     -2129118.274     -6545246.792
10 0 59672 76380.000000 0     -1304674.365      -851291.679     -6897415.432
10 0 59672 76560.000000 0      -915227.226       448084.443     -6998986.924
10 0 59672 76740.000000 0      -459037.995      1720218.694     -6846488.486
10 0 59672 76920.000000 0        46111.717      2917764.561     -6445531.303
10 0 59672 77100.000000 0       579482.908      3996538.086     -5810614.240
10 0 59672 77280.000000 0      1118204.172      4917123.027     -4964640.896
10 0 59672 77460.000000 0      1638217.208      5646311.800     -3938155.784
10 0 59672 77640.000000 0      2115313.168      6158335.161     -2768306.641
10 0 59672 77820.000000 0      2526218.298      6435825.100     -1497552.873
10 0 59672 78000.000000 0      2849681.724      6470465.096      -172151.555
10 0 59672 78180.000000 0      3067509.879      6263281.456      1159529.827
10 0 59672 78360.000000 0      3165492.655      5824554.390      2448800.268
10 0 59672 78540.000000 0      3134173.335      5173352.854      3648457.674
10 0 59672 78720.000000 0      2969422.653      4336710.547      4714550.662
10 0 59672 78900.000000 0      2672781.943      3348482.186      5608014.485
10 0 59672 79080.000000 0      2251554.311      2247937.423      6296102.849
10 0 59672 79260.000000 0      1718655.052      1078173.929      6753571.640
10 0 59672 79440.000000 0      1092219.405      -115590.008      6963585.846
10 0 59672 79620.000000 0       394983.796     -1287768.939      6918323.780
10 0 59672 79800.000000 0      -346539.020     -2394157.045      6619274.625
10 0 59672 79980.000000 0     -1103068.720     -3393610.026      6077208.744
10 0 59672 80160.000000 0     -1843709.450     -4249597.684      5311819.250
10 0 59672 80340.000000 0     -2537210.913     -4931577.888      4351053.546
10 0 59672 80520.000000 0     -3153303.737     -5416148.871      3230131.347
10 0 59672 80700.000000 0     -3664039.462     -5687914.900      1990257.745
10 0 59672 80880.000000 0     -4045065.102     -5740016.969       677084.263
10 0 59672 81060.000000 0     -4276772.282     -5574302.877      -661021.847
10 0 59672 81240.000000 0     -4345257.679     -5201122.362     -1974828.150
10 0 59672 81420.000000 0     -4243038.795     -4638753.158     -3216121.609
10 0 59672 81600.000000 0     -3969485.758     -3912491.924     -4339529.917
10 0 59672 81780.000000 0     -3530953.765     -3053473.248     -5304194.101
10 0 59672 81960.000000 0     -2940621.132     -2097287.355     -6075229.166
10 0 59672 82140.000000 0     -2218050.517     -1082469.866     -6624926.332
10 0 59672 82320.000000 0     -1388498.979       -48934.528     -6933669.980
10 0 59672 82500.000000 0      -482012.606       963583.895     -6990552.445
10 0 59672 82680.000000 0       467655.525      1917021.710     -6793697.615
10 0 59672 82860.000000 0      1424275.491      2776376.463     -6350300.367
10 0 59672 83040.000000 0      2350491.462      3510962.372     -5676380.646
10 0 59672 83220.000000 0      3209250.202      4095492.505     -4796247.946
10 0 59672 83400.000000 0      3965262.680      4510956.042     -3741689.302
10 0 59672 83580.000000 0      4586451.434      4745261.906     -2550886.765
10 0 59672 83760.000000 0      5045321.574      4793613.212     -1267082.046
10 0 59672 83940.000000 0      5320189.571      4658590.619        62971.265
10 0 59672 84120.000000 0      5396202.980      4349933.121      1390715.858
10 0 59672 84300.000000 0      5266097.849      3884024.796      2667586.235
10 0 59672 84480.000000 0      4930652.884      3283104.815      3846822.411
10 0 59672 84660.000000 0      4398803.486      2574238.354      4885216.768
10 0 59672 84840.000000 0      3687417.376      1788105.137      5744713.786
10 0 59672 85020.000000 0      2820740.967       957669.599      6393806.552
10 0 59672 85200.000000 0      1829546.250       116791.498      6808672.643
10 0 59672 85380.000000 0       750023.017      -701154.240      6974026.668
10 0 59672 85560.000000 0      -377551.122     -1464603.325      6883676.867
10 0 59672 85740.000000 0     -1510318.897     -2145027.802      6540760.119
10 0 59672 85920.000000 0     -2604473.952     -2718014.092      5957651.194
99
